CCSDS_OMM_VERS = 2.0
CREATION_DATE  = 
ORIGINATOR     = 

OBJECT_NAME    = ISS (ZARYA)
OBJECT_ID      = 1998-067A
CENTER_NAME    = EARTH
REF_FRAME      = TEME
TIME_SYSTEM    = UTC
MEAN_ELEMENT_THEORY = SGP/SGP4

EPOCH          = 2026-03-01T10:42:24.882912
MEAN_MOTION    = 15.48380101
ECCENTRICITY   = .0008284
INCLINATION    = 51.6323
RA_OF_ASC_NODE = 113.1104
ARG_OF_PERICENTER = 145.6657
MEAN_ANOMALY   = 214.4868

EPHEMERIS_TYPE = 0
CLASSIFICATION_TYPE = U
NORAD_CAT_ID   = 25544
ELEMENT_SET_NO = 999
REV_AT_EPOCH   = 55505
BSTAR          = .18913E-3
MEAN_MOTION_DOT = .9769E-4
MEAN_MOTION_DDOT = 0

CCSDS_OMM_VERS = 2.0
CREATION_DATE  = 
ORIGINATOR     = 

OBJECT_NAME    = POISK
OBJECT_ID      = 2009-060A
CENTER_NAME    = EARTH
REF_FRAME      = TEME
TIME_SYSTEM    = UTC
MEAN_ELEMENT_THEORY = SGP/SGP4

EPOCH          = 2026-03-01T10:42:24.882912
MEAN_MOTION    = 15.48380101
ECCENTRICITY   = .0008284
INCLINATION    = 51.6323
RA_OF_ASC_NODE = 113.1104
ARG_OF_PERICENTER = 145.6657
MEAN_ANOMALY   = 214.4868

EPHEMERIS_TYPE = 0
CLASSIFICATION_TYPE = U
NORAD_CAT_ID   = 36086
ELEMENT_SET_NO = 999
REV_AT_EPOCH   = 55474
BSTAR          = .18913E-3
MEAN_MOTION_DOT = .9769E-4
MEAN_MOTION_DDOT = 0

CCSDS_OMM_VERS = 2.0
CREATION_DATE  = 
ORIGINATOR     = 

OBJECT_NAME    = CSS (TIANHE)
OBJECT_ID      = 2021-035A
CENTER_NAME    = EARTH
REF_FRAME      = TEME
TIME_SYSTEM    = UTC
MEAN_ELEMENT_THEORY = SGP/SGP4

EPOCH          = 2026-03-01T11:01:39.869472
MEAN_MOTION    = 15.60272448
ECCENTRICITY   = .0006488
INCLINATION    = 41.4651
RA_OF_ASC_NODE = 258.2248
ARG_OF_PERICENTER = 221.0416
MEAN_ANOMALY   = 138.9935

EPHEMERIS_TYPE = 0
CLASSIFICATION_TYPE = U
NORAD_CAT_ID   = 48274
ELEMENT_SET_NO = 999
REV_AT_EPOCH   = 27632
BSTAR          = .26741E-3
MEAN_MOTION_DOT = .22218E-3
MEAN_MOTION_DDOT = 0

CCSDS_OMM_VERS = 2.0
CREATION_DATE  = 
ORIGINATOR     = 

OBJECT_NAME    = ISS (NAUKA)
OBJECT_ID      = 2021-066A
CENTER_NAME    = EARTH
REF_FRAME      = TEME
TIME_SYSTEM    = UTC
MEAN_ELEMENT_THEORY = SGP/SGP4

EPOCH          = 2026-03-01T10:42:24.882912
MEAN_MOTION    = 15.48380101
ECCENTRICITY   = .0008284
INCLINATION    = 51.6323
RA_OF_ASC_NODE = 113.1104
ARG_OF_PERICENTER = 145.6657
MEAN_ANOMALY   = 214.4868

EPHEMERIS_TYPE = 0
CLASSIFICATION_TYPE = U
NORAD_CAT_ID   = 49044
ELEMENT_SET_NO = 999
REV_AT_EPOCH   = 55475
BSTAR          = .18913E-3
MEAN_MOTION_DOT = .9769E-4
MEAN_MOTION_DDOT = 0

CCSDS_OMM_VERS = 2.0
CREATION_DATE  = 
ORIGINATOR     = 

OBJECT_NAME    = FREGAT DEB
OBJECT_ID      = 2011-037PF
CENTER_NAME    = EARTH
REF_FRAME      = TEME
TIME_SYSTEM    = UTC
MEAN_ELEMENT_THEORY = SGP/SGP4

EPOCH          = 2026-03-01T03:19:14.375712
MEAN_MOTION    = 12.39641202
ECCENTRICITY   = .09532668
INCLINATION    = 51.6523
RA_OF_ASC_NODE = 326.3892
ARG_OF_PERICENTER = 39.7514
MEAN_ANOMALY   = 326.9389

EPHEMERIS_TYPE = 0
CLASSIFICATION_TYPE = U
NORAD_CAT_ID   = 49271
ELEMENT_SET_NO = 999
REV_AT_EPOCH   = 21163
BSTAR          = .49848877E-1
MEAN_MOTION_DOT = .33519E-3
MEAN_MOTION_DDOT = 0

CCSDS_OMM_VERS = 2.0
CREATION_DATE  = 
ORIGINATOR     = 

OBJECT_NAME    = CSS (WENTIAN)
OBJECT_ID      = 2022-085A
CENTER_NAME    = EARTH
REF_FRAME      = TEME
TIME_SYSTEM    = UTC
MEAN_ELEMENT_THEORY = SGP/SGP4

EPOCH          = 2026-03-01T11:01:39.869472
MEAN_MOTION    = 15.60272448
ECCENTRICITY   = .0006488
INCLINATION    = 41.4651
RA_OF_ASC_NODE = 258.2248
ARG_OF_PERICENTER = 221.0416
MEAN_ANOMALY   = 138.9935

EPHEMERIS_TYPE = 0
CLASSIFICATION_TYPE = U
NORAD_CAT_ID   = 53239
ELEMENT_SET_NO = 999
REV_AT_EPOCH   = 27591
BSTAR          = .26741E-3
MEAN_MOTION_DOT = .22218E-3
MEAN_MOTION_DDOT = 0

CCSDS_OMM_VERS = 2.0
CREATION_DATE  = 
ORIGINATOR     = 

OBJECT_NAME    = CSS (MENGTIAN)
OBJECT_ID      = 2022-143A
CENTER_NAME    = EARTH
REF_FRAME      = TEME
TIME_SYSTEM    = UTC
MEAN_ELEMENT_THEORY = SGP/SGP4

EPOCH          = 2026-03-01T11:01:39.869472
MEAN_MOTION    = 15.60272448
ECCENTRICITY   = .0006488
INCLINATION    = 41.4651
RA_OF_ASC_NODE = 258.2248
ARG_OF_PERICENTER = 221.0416
MEAN_ANOMALY   = 138.9935

EPHEMERIS_TYPE = 0
CLASSIFICATION_TYPE = U
NORAD_CAT_ID   = 54216
ELEMENT_SET_NO = 999
REV_AT_EPOCH   = 27588
BSTAR          = .26741E-3
MEAN_MOTION_DOT = .22218E-3
MEAN_MOTION_DDOT = 0

CCSDS_OMM_VERS = 2.0
CREATION_DATE  = 
ORIGINATOR     = 

OBJECT_NAME    = PROGRESS-MS 31
OBJECT_ID      = 2025-146A
CENTER_NAME    = EARTH
REF_FRAME      = TEME
TIME_SYSTEM    = UTC
MEAN_ELEMENT_THEORY = SGP/SGP4

EPOCH          = 2026-03-01T10:42:24.882912
MEAN_MOTION    = 15.48380101
ECCENTRICITY   = .0008284
INCLINATION    = 51.6323
RA_OF_ASC_NODE = 113.1104
ARG_OF_PERICENTER = 145.6657
MEAN_ANOMALY   = 214.4868

EPHEMERIS_TYPE = 0
CLASSIFICATION_TYPE = U
NORAD_CAT_ID   = 64751
ELEMENT_SET_NO = 999
REV_AT_EPOCH   = 55476
BSTAR          = .18913E-3
MEAN_MOTION_DOT = .9769E-4
MEAN_MOTION_DDOT = 0

CCSDS_OMM_VERS = 2.0
CREATION_DATE  = 
ORIGINATOR     = 

OBJECT_NAME    = TIANZHOU-9
OBJECT_ID      = 2025-149A
CENTER_NAME    = EARTH
REF_FRAME      = TEME
TIME_SYSTEM    = UTC
MEAN_ELEMENT_THEORY = SGP/SGP4

EPOCH          = 2026-03-01T11:01:39.869472
MEAN_MOTION    = 15.60272448
ECCENTRICITY   = .0006488
INCLINATION    = 41.4651
RA_OF_ASC_NODE = 258.2248
ARG_OF_PERICENTER = 221.0416
MEAN_ANOMALY   = 138.9935

EPHEMERIS_TYPE = 0
CLASSIFICATION_TYPE = U
NORAD_CAT_ID   = 64786
ELEMENT_SET_NO = 999
REV_AT_EPOCH   = 27589
BSTAR          = .26741E-3
MEAN_MOTION_DOT = .22218E-3
MEAN_MOTION_DDOT = 0

CCSDS_OMM_VERS = 2.0
CREATION_DATE  = 
ORIGINATOR     = 

OBJECT_NAME    = PROGRESS-MS 32
OBJECT_ID      = 2025-204A
CENTER_NAME    = EARTH
REF_FRAME      = TEME
TIME_SYSTEM    = UTC
MEAN_ELEMENT_THEORY = SGP/SGP4

EPOCH          = 2026-03-01T10:42:24.882912
MEAN_MOTION    = 15.48380101
ECCENTRICITY   = .0008284
INCLINATION    = 51.6323
RA_OF_ASC_NODE = 113.1104
ARG_OF_PERICENTER = 145.6657
MEAN_ANOMALY   = 214.4868

EPHEMERIS_TYPE = 0
CLASSIFICATION_TYPE = U
NORAD_CAT_ID   = 65586
ELEMENT_SET_NO = 999
REV_AT_EPOCH   = 55480
BSTAR          = .18913E-3
MEAN_MOTION_DOT = .9769E-4
MEAN_MOTION_DDOT = 0

CCSDS_OMM_VERS = 2.0
CREATION_DATE  = 
ORIGINATOR     = 

OBJECT_NAME    = CYGNUS NG-23
OBJECT_ID      = 2025-208A
CENTER_NAME    = EARTH
REF_FRAME      = TEME
TIME_SYSTEM    = UTC
MEAN_ELEMENT_THEORY = SGP/SGP4

EPOCH          = 2026-03-01T10:42:24.882912
MEAN_MOTION    = 15.48380101
ECCENTRICITY   = .0008284
INCLINATION    = 51.6323
RA_OF_ASC_NODE = 113.1104
ARG_OF_PERICENTER = 145.6657
MEAN_ANOMALY   = 214.4868

EPHEMERIS_TYPE = 0
CLASSIFICATION_TYPE = U
NORAD_CAT_ID   = 65616
ELEMENT_SET_NO = 999
REV_AT_EPOCH   = 55481
BSTAR          = .18913E-3
MEAN_MOTION_DOT = .9769E-4
MEAN_MOTION_DDOT = 0

CCSDS_OMM_VERS = 2.0
CREATION_DATE  = 
ORIGINATOR     = 

OBJECT_NAME    = ISS OBJECT XK
OBJECT_ID      = 1998-067XK
CENTER_NAME    = EARTH
REF_FRAME      = TEME
TIME_SYSTEM    = UTC
MEAN_ELEMENT_THEORY = SGP/SGP4

EPOCH          = 2026-03-01T07:32:51.592128
MEAN_MOTION    = 16.01638929
ECCENTRICITY   = .0006743
INCLINATION    = 51.6174
RA_OF_ASC_NODE = 91.0881
ARG_OF_PERICENTER = 40.2246
MEAN_ANOMALY   = 319.9262

EPHEMERIS_TYPE = 0
CLASSIFICATION_TYPE = U
NORAD_CAT_ID   = 65731
ELEMENT_SET_NO = 999
REV_AT_EPOCH   = 2555
BSTAR          = .13265E-2
MEAN_MOTION_DOT = .764736E-2
MEAN_MOTION_DDOT = .28714E-3

