ISS (ZARYA)             
1 25544U 98067A   26060.44612133  .00009769  00000+0  18913-3 0  9993
2 25544  51.6323 113.1104 0008284 145.6657 214.4868 15.48380101555053
POISK                   
1 36086U 09060A   26060.44612133  .00009769  00000+0  18913-3 0  9991
2 36086  51.6323 113.1104 0008284 145.6657 214.4868 15.48380101554741
CSS (TIANHE)            
1 48274U 21035A   26060.45948923  .00022218  00000+0  26741-3 0  9991
2 48274  41.4651 258.2248 0006488 221.0416 138.9935 15.60272448276328
ISS (NAUKA)             
1 49044U 21066A   26060.44612133  .00009769  00000+0  18913-3 0  9999
2 49044  51.6323 113.1104 0008284 145.6657 214.4868 15.48380101554750
FREGAT DEB              
1 49271U 11037PF  26060.13836083  .00033519  00000+0  49849-1 0  9996
2 49271  51.6523 326.3892 0953266  39.7514 326.9389 12.39641202211633
CSS (WENTIAN)           
1 53239U 22085A   26060.45948923  .00022218  00000+0  26741-3 0  9994
2 53239  41.4651 258.2248 0006488 221.0416 138.9935 15.60272448275919
CSS (MENGTIAN)          
1 54216U 22143A   26060.45948923  .00022218  00000+0  26741-3 0  9995
2 54216  41.4651 258.2248 0006488 221.0416 138.9935 15.60272448275881
PROGRESS-MS 31          
1 64751U 25146A   26060.44612133  .00009769  00000+0  18913-3 0  9994
2 64751  51.6323 113.1104 0008284 145.6657 214.4868 15.48380101554763
TIANZHOU-9              
1 64786U 25149A   26060.45948923  .00022218  00000+0  26741-3 0  9997
2 64786  41.4651 258.2248 0006488 221.0416 138.9935 15.60272448275895
PROGRESS-MS 32          
1 65586U 25204A   26060.44612133  .00009769  00000+0  18913-3 0  9996
2 65586  51.6323 113.1104 0008284 145.6657 214.4868 15.48380101554805
CYGNUS NG-23            
1 65616U 25208A   26060.44612133  .00009769  00000+0  18913-3 0  9994
2 65616  51.6323 113.1104 0008284 145.6657 214.4868 15.48380101554810
ISS OBJECT XK           
1 65731U 98067XK  26060.31448602  .00764736  28714-3  13265-2 0  9991
2 65731  51.6174  91.0881 0006743  40.2246 319.9262 16.01638929 25557
